{
  "links" : {
    "next" : "https://api.nasa.gov/neo/rest/v1/feed?start_date=2006-04-23&end_date=2006-04-23&detailed=true&api_key=t0TVs3DtDT2H8Oy2Zy8m2eVrNsAVKAexjcZXUckd",
    "prev" : "https://api.nasa.gov/neo/rest/v1/feed?start_date=2006-04-21&end_date=2006-04-21&detailed=true&api_key=t0TVs3DtDT2H8Oy2Zy8m2eVrNsAVKAexjcZXUckd",
    "self" : "https://api.nasa.gov/neo/rest/v1/feed?start_date=2006-04-22&end_date=2006-04-22&detailed=true&api_key=t0TVs3DtDT2H8Oy2Zy8m2eVrNsAVKAexjcZXUckd"
  },
  "element_count" : 3,
  "near_earth_objects" : {
    "2006-04-22" : [ {
      "links" : {
        "self" : "https://api.nasa.gov/neo/rest/v1/neo/3124996?api_key=t0TVs3DtDT2H8Oy2Zy8m2eVrNsAVKAexjcZXUckd"
      },
      "neo_reference_id" : "3124996",
      "name" : "(2002 JX8)",
      "nasa_jpl_url" : "http://ssd.jpl.nasa.gov/sbdb.cgi?sstr=3124996",
      "absolute_magnitude_h" : 20.3,
      "estimated_diameter" : {
        "kilometers" : {
          "estimated_diameter_min" : 0.2315021222,
          "estimated_diameter_max" : 0.5176544822
        },
        "meters" : {
          "estimated_diameter_min" : 231.5021222103,
          "estimated_diameter_max" : 517.6544821978
        },
        "miles" : {
          "estimated_diameter_min" : 0.1438487052,
          "estimated_diameter_max" : 0.3216554833
        },
        "feet" : {
          "estimated_diameter_min" : 759.5214226325,
          "estimated_diameter_max" : 1698.3415313737
        }
      },
      "is_potentially_hazardous_asteroid" : true,
      "close_approach_data" : [ {
        "close_approach_date" : "2006-04-22",
        "epoch_date_close_approach" : 1145689200000,
        "relative_velocity" : {
          "kilometers_per_second" : "18.3629797506",
          "kilometers_per_hour" : "66106.7271022558",
          "miles_per_hour" : "41076.1494041766"
        },
        "miss_distance" : {
          "astronomical" : "0.4114794032",
          "lunar" : "160.0654907227",
          "kilometers" : "61556444",
          "miles" : "38249400"
        },
        "orbiting_body" : "Earth"
      } ],
      "orbital_data" : {
        "orbit_id" : "18",
        "orbit_determination_date" : "2017-04-22 06:17:04",
        "orbit_uncertainty" : "1",
        "minimum_orbit_intersection" : ".0196539",
        "jupiter_tisserand_invariant" : "7.487",
        "epoch_osculation" : "2458000.5",
        "eccentricity" : ".305298541710261",
        "semi_major_axis" : ".7701022535820686",
        "inclination" : "4.314709067006513",
        "ascending_node_longitude" : "68.59824102271627",
        "orbital_period" : "246.8431150048927",
        "perihelion_distance" : ".5349911585956775",
        "perihelion_argument" : "338.1123261488276",
        "aphelion_distance" : "1.00521334856846",
        "perihelion_time" : "2457965.395617530136",
        "mean_anomaly" : "51.1968004005322",
        "mean_motion" : "1.45841620898709",
        "equinox" : "J2000"
      }
    }, {
      "links" : {
        "self" : "https://api.nasa.gov/neo/rest/v1/neo/3330051?api_key=t0TVs3DtDT2H8Oy2Zy8m2eVrNsAVKAexjcZXUckd"
      },
      "neo_reference_id" : "3330051",
      "name" : "(2006 HE2)",
      "nasa_jpl_url" : "http://ssd.jpl.nasa.gov/sbdb.cgi?sstr=3330051",
      "absolute_magnitude_h" : 26.5,
      "estimated_diameter" : {
        "kilometers" : {
          "estimated_diameter_min" : 0.0133215567,
          "estimated_diameter_max" : 0.0297879063
        },
        "meters" : {
          "estimated_diameter_min" : 13.3215566698,
          "estimated_diameter_max" : 29.7879062798
        },
        "miles" : {
          "estimated_diameter_min" : 0.008277629,
          "estimated_diameter_max" : 0.0185093411
        },
        "feet" : {
          "estimated_diameter_min" : 43.7058959846,
          "estimated_diameter_max" : 97.7293544391
        }
      },
      "is_potentially_hazardous_asteroid" : false,
      "close_approach_data" : [ {
        "close_approach_date" : "2006-04-22",
        "epoch_date_close_approach" : 1145689200000,
        "relative_velocity" : {
          "kilometers_per_second" : "5.2633181074",
          "kilometers_per_hour" : "18947.9451867672",
          "miles_per_hour" : "11773.5162745221"
        },
        "miss_distance" : {
          "astronomical" : "0.0070109306",
          "lunar" : "2.7272520065",
          "kilometers" : "1048820.25",
          "miles" : "651706.75"
        },
        "orbiting_body" : "Earth"
      } ],
      "orbital_data" : {
        "orbit_id" : "7",
        "orbit_determination_date" : "2017-04-06 09:08:47",
        "orbit_uncertainty" : "6",
        "minimum_orbit_intersection" : ".00456693",
        "jupiter_tisserand_invariant" : "5.784",
        "epoch_osculation" : "2458000.5",
        "eccentricity" : ".1565095653446594",
        "semi_major_axis" : "1.063882397219025",
        "inclination" : "1.181158723245989",
        "ascending_node_longitude" : "200.3529008144411",
        "orbital_period" : "400.8102891056435",
        "perihelion_distance" : ".8973746256524414",
        "perihelion_argument" : "90.64642474865727",
        "aphelion_distance" : "1.230390168785609",
        "perihelion_time" : "2457930.926831542654",
        "mean_anomaly" : "62.48926568360368",
        "mean_motion" : ".898180535243478",
        "equinox" : "J2000"
      }
    }, {
      "links" : {
        "self" : "https://api.nasa.gov/neo/rest/v1/neo/3330688?api_key=t0TVs3DtDT2H8Oy2Zy8m2eVrNsAVKAexjcZXUckd"
      },
      "neo_reference_id" : "3330688",
      "name" : "(2006 HV50)",
      "nasa_jpl_url" : "http://ssd.jpl.nasa.gov/sbdb.cgi?sstr=3330688",
      "absolute_magnitude_h" : 23.6,
      "estimated_diameter" : {
        "kilometers" : {
          "estimated_diameter_min" : 0.0506471459,
          "estimated_diameter_max" : 0.1132504611
        },
        "meters" : {
          "estimated_diameter_min" : 50.6471458835,
          "estimated_diameter_max" : 113.2504610618
        },
        "miles" : {
          "estimated_diameter_min" : 0.0314706677,
          "estimated_diameter_max" : 0.0703705522
        },
        "feet" : {
          "estimated_diameter_min" : 166.1651821003,
          "estimated_diameter_max" : 371.5566426699
        }
      },
      "is_potentially_hazardous_asteroid" : false,
      "close_approach_data" : [ {
        "close_approach_date" : "2006-04-22",
        "epoch_date_close_approach" : 1145689200000,
        "relative_velocity" : {
          "kilometers_per_second" : "9.4324803752",
          "kilometers_per_hour" : "33956.9293506827",
          "miles_per_hour" : "21099.5153512617"
        },
        "miss_distance" : {
          "astronomical" : "0.0328371528",
          "lunar" : "12.7736520767",
          "kilometers" : "4912368",
          "miles" : "3052404"
        },
        "orbiting_body" : "Earth"
      } ],
      "orbital_data" : {
        "orbit_id" : "9",
        "orbit_determination_date" : "2017-04-06 09:08:44",
        "orbit_uncertainty" : "7",
        "minimum_orbit_intersection" : ".0338549",
        "jupiter_tisserand_invariant" : "6.878",
        "epoch_osculation" : "2458000.5",
        "eccentricity" : ".2609929546487141",
        "semi_major_axis" : ".8487756339912385",
        "inclination" : "16.43337861682357",
        "ascending_node_longitude" : "34.73397064593119",
        "orbital_period" : "285.6194525370139",
        "perihelion_distance" : ".6272511734420296",
        "perihelion_argument" : "22.64658849592149",
        "aphelion_distance" : "1.070300094540447",
        "perihelion_time" : "2458022.142184681845",
        "mean_anomaly" : "332.721793224309",
        "mean_motion" : "1.26041835316993",
        "equinox" : "J2000"
      }
    } ]
  }
}